{
  "type": "FeatureCollection",
  "features": [
    {
      "type": "Feature",
      "properties": {
        "norad_id": 62876,
        "name": "QZS-6 (QZSS/PRN 200)",
        "group": "gnss",
        "lat": 0.034359733352475684,
        "lon": 156.45949024778332,
        "alt_km": 35788.572984030856,
        "timestamp": "2025-12-15T22:44:29.171337+00:00",
        "meta_object_name": "QZS-6 (QZSS/PRN 200)",
        "meta_object_id": "2025-023A",
        "meta_epoch": "2025-12-15T06:58:00.114240",
        "meta_mean_motion": 1.00274011,
        "meta_eccentricity": 0.00015783,
        "meta_inclination": 0.0381,
        "meta_ra_of_asc_node": 62.4827,
        "meta_arg_of_pericenter": 211.4064,
        "meta_mean_anomaly": 5.3238,
        "meta_ephemeris_type": 0,
        "meta_classification_type": "U",
        "meta_norad_cat_id": 62876,
        "meta_element_set_no": 999,
        "meta_rev_at_epoch": 311,
        "meta_bstar": 0,
        "meta_mean_motion_dot": -2.13e-06,
        "meta_mean_motion_ddot": 0,
        "tle_line1": "1 62876U 25023A   25349.29027910 -.00000213  00000+0  00000+0 0  9999",
        "tle_line2": "2 62876   0.0381  62.4827 0001578 211.4064   5.3238  1.00274011  3113"
      },
      "geometry": {
        "type": "Point",
        "coordinates": [
          156.45949024778332,
          0.034359733352475684
        ]
      }
    },
    {
      "type": "Feature",
      "properties": {
        "norad_id": 63130,
        "name": "COSMOS 2584 (704K)",
        "group": "gnss",
        "lat": -35.79125165691507,
        "lon": -81.31077616838822,
        "alt_km": 19114.83087682568,
        "timestamp": "2025-12-15T22:44:29.171349+00:00",
        "meta_object_name": "COSMOS 2584 (704K)",
        "meta_object_id": "2025-042A",
        "meta_epoch": "2025-12-14T17:19:43.603680",
        "meta_mean_motion": 2.13103043,
        "meta_eccentricity": 0.00076907,
        "meta_inclination": 64.977,
        "meta_ra_of_asc_node": 79.0784,
        "meta_arg_of_pericenter": 217.9412,
        "meta_mean_anomaly": 142.0178,
        "meta_ephemeris_type": 0,
        "meta_classification_type": "U",
        "meta_norad_cat_id": 63130,
        "meta_element_set_no": 999,
        "meta_rev_at_epoch": 611,
        "meta_bstar": 0,
        "meta_mean_motion_dot": -5.6e-07,
        "meta_mean_motion_ddot": 0,
        "tle_line1": "1 63130U 25042A   25348.72203245 -.00000056  00000+0  00000+0 0  9993",
        "tle_line2": "2 63130  64.9770  79.0784 0007690 217.9412 142.0178  2.13103043  6119"
      },
      "geometry": {
        "type": "Point",
        "coordinates": [
          -81.31077616838822,
          -35.79125165691507
        ]
      }
    },
    {
      "type": "Feature",
      "properties": {
        "norad_id": 64202,
        "name": "GPS BIII-8  (PRN 21)",
        "group": "gnss",
        "lat": -48.61697557005558,
        "lon": -89.16110256780087,
        "alt_km": 20181.125748734787,
        "timestamp": "2025-12-15T22:44:29.171360+00:00",
        "meta_object_name": "GPS BIII-8  (PRN 21)",
        "meta_object_id": "2025-116A",
        "meta_epoch": "2025-12-14T02:46:13.653120",
        "meta_mean_motion": 2.00558299,
        "meta_eccentricity": 0.00056153,
        "meta_inclination": 55.1067,
        "meta_ra_of_asc_node": 38.5851,
        "meta_arg_of_pericenter": 308.147,
        "meta_mean_anomaly": 55.2369,
        "meta_ephemeris_type": 0,
        "meta_classification_type": "U",
        "meta_norad_cat_id": 64202,
        "meta_element_set_no": 999,
        "meta_rev_at_epoch": 416,
        "meta_bstar": 0,
        "meta_mean_motion_dot": -9.6e-07,
        "meta_mean_motion_ddot": 0,
        "tle_line1": "1 64202U 25116A   25348.11543580 -.00000096  00000+0  00000+0 0  9992",
        "tle_line2": "2 64202  55.1067  38.5851 0005615 308.1470  55.2369  2.00558299  4161"
      },
      "geometry": {
        "type": "Point",
        "coordinates": [
          -89.16110256780087,
          -48.61697557005558
        ]
      }
    },
    {
      "type": "Feature",
      "properties": {
        "norad_id": 65590,
        "name": "COSMOS 2596 (708K)",
        "group": "gnss",
        "lat": -19.185575182209156,
        "lon": -48.1027905946532,
        "alt_km": 19102.439222968478,
        "timestamp": "2025-12-15T22:44:29.171374+00:00",
        "meta_object_name": "COSMOS 2596 (708K)",
        "meta_object_id": "2025-206B",
        "meta_epoch": "2025-12-15T06:31:38.583840",
        "meta_mean_motion": 2.13100545,
        "meta_eccentricity": 0.00140608,
        "meta_inclination": 64.7428,
        "meta_ra_of_asc_node": 321.386,
        "meta_arg_of_pericenter": 306.8373,
        "meta_mean_anomaly": 233.4816,
        "meta_ephemeris_type": 0,
        "meta_classification_type": "U",
        "meta_norad_cat_id": 65590,
        "meta_element_set_no": 999,
        "meta_rev_at_epoch": 199,
        "meta_bstar": 0,
        "meta_mean_motion_dot": -6.8e-07,
        "meta_mean_motion_ddot": 0,
        "tle_line1": "1 65590U 25206B   25349.27197435 -.00000068  00000+0  00000+0 0  9994",
        "tle_line2": "2 65590  64.7428 321.3860 0014060 306.8373 233.4816  2.13100545  1999"
      },
      "geometry": {
        "type": "Point",
        "coordinates": [
          -48.1027905946532,
          -19.185575182209156
        ]
      }
    }
  ]
}